[{"OBJECT_NAME":"STARLINK-32933","OBJECT_ID":"2025-037F","EPOCH":"2026-03-09T21:39:59.933664","MEAN_MOTION":14.96392117,"ECCENTRICITY":0.00092861,"INCLINATION":70.0032,"RA_OF_ASC_NODE":353.9289,"ARG_OF_PERICENTER":34.0128,"MEAN_ANOMALY":326.1623,"EPHEMERIS_TYPE":0,"CLASSIFICATION_TYPE":"U","NORAD_CAT_ID":63082,"ELEMENT_SET_NO":999,"REV_AT_EPOCH":5857,"BSTAR":-0.11736872,"MEAN_MOTION_DOT":-0.01234595,"MEAN_MOTION_DDOT":0},{"OBJECT_NAME":"GAOFEN-9 DEB","OBJECT_ID":"2015-047B","EPOCH":"2026-03-08T06:31:22.214496","MEAN_MOTION":14.59712918,"ECCENTRICITY":0.01547101,"INCLINATION":98.1376,"RA_OF_ASC_NODE":356.8946,"ARG_OF_PERICENTER":25.8872,"MEAN_ANOMALY":334.9965,"EPHEMERIS_TYPE":0,"CLASSIFICATION_TYPE":"U","NORAD_CAT_ID":44600,"ELEMENT_SET_NO":999,"REV_AT_EPOCH":55111,"BSTAR":0.0018315367,"MEAN_MOTION_DOT":0.0001029,"MEAN_MOTION_DDOT":0}]
